{"type": "FeatureCollection", "features": [ {"type": "Feature", "properties": {"norad_id": 32289, "name": "YAOGAN-3", "group": "resource", "lat": 52.9618335699299, "lon": -159.34721676377023, "alt_km": 592.9417410551932, "timestamp": "2025-12-09T11:33:54.456954+00:00", "meta": {"OBJECT_NAME": "YAOGAN-3", "OBJECT_ID": "2007-055A", "EPOCH": "2025-12-09T04:33:10.307232", "MEAN_MOTION": 14.89830373, "ECCENTRICITY": 0.0001425, "INCLINATION": 97.8367, "RA_OF_ASC_NODE": 9.8467, "ARG_OF_PERICENTER": 72.6964, "MEAN_ANOMALY": 287.4409, "EPHEMERIS_TYPE": 0, "CLASSIFICATION_TYPE": "U", "NORAD_CAT_ID": 32289, "ELEMENT_SET_NO": 999, "REV_AT_EPOCH": 97756, "BSTAR": 0.00018269, "MEAN_MOTION_DOT": 1.699e-05, "MEAN_MOTION_DDOT": 0}, "tle": {"line1": "1 32289U 07055A   25343.18970263  .00001699  00000+0  18269-3 0  9997", "line2": "2 32289  97.8367   9.8467 0001425  72.6964 287.4409 14.89830373977560"}}, "geometry": {"type": "Point", "coordinates": [-159.34721676377023, 52.9618335699299]}}, {"type": "Feature", "properties": {"norad_id": 32376, "name": "COSMO-SKYMED 2", "group": "resource", "lat": 44.10681175914201, "lon": -7.429192989612763, "alt_km": 618.1270436540617, "timestamp": "2025-12-09T11:33:54.456974+00:00", "meta": {"OBJECT_NAME": "COSMO-SKYMED 2", "OBJECT_ID": "2007-059A", "EPOCH": "2025-12-09T04:28:33.466080", "MEAN_MOTION": 14.8215882, "ECCENTRICITY": 0.0001532, "INCLINATION": 97.8812, "RA_OF_ASC_NODE": 164.5637, "ARG_OF_PERICENTER": 86.004, "MEAN_ANOMALY": 274.1348, "EPHEMERIS_TYPE": 0, "CLASSIFICATION_TYPE": "U", "NORAD_CAT_ID": 32376, "ELEMENT_SET_NO": 999, "REV_AT_EPOCH": 97385, "BSTAR": 0.0001167, "MEAN_MOTION_DOT": 8.77e-06, "MEAN_MOTION_DDOT": 0}, "tle": {"line1": "1 32376U 07059A   25343.18649845  .00000877  00000+0  11670-3 0  9993", "line2": "2 32376  97.8812 164.5637 0001532  86.0040 274.1348 14.82158820973859"}}, "geometry": {"type": "Point", "coordinates": [-7.429192989612763, 44.10681175914201]}}, {"type": "Feature", "properties": {"norad_id": 32382, "name": "RADARSAT-2", "group": "resource", "lat": -24.684979200326094, "lon": -7.902096504372418, "alt_km": 797.5750171149484, "timestamp": "2025-12-09T11:33:54.456986+00:00", "meta": {"OBJECT_NAME": "RADARSAT-2", "OBJECT_ID": "2007-061A", "EPOCH": "2025-12-09T03:17:06.786240", "MEAN_MOTION": 14.29985925, "ECCENTRICITY": 0.0001087, "INCLINATION": 98.5794, "RA_OF_ASC_NODE": 347.7791, "ARG_OF_PERICENTER": 86.8079, "MEAN_ANOMALY": 273.3228, "EPHEMERIS_TYPE": 0, "CLASSIFICATION_TYPE": "U", "NORAD_CAT_ID": 32382, "ELEMENT_SET_NO": 999, "REV_AT_EPOCH": 93879, "BSTAR": 7.7402e-05, "MEAN_MOTION_DOT": 1.56e-06, "MEAN_MOTION_DDOT": 0}, "tle": {"line1": "1 32382U 07061A   25343.13688410  .00000156  00000+0  77402-4 0  9995", "line2": "2 32382  98.5794 347.7791 0001087  86.8079 273.3228 14.29985925938791"}}, "geometry": {"type": "Point", "coordinates": [-7.902096504372418, -24.684979200326094]}}, {"type": "Feature", "properties": {"norad_id": 32783, "name": "CARTOSAT-2A", "group": "resource", "lat": -46.83377994886249, "lon": 41.802868338535546, "alt_km": 635.5103311314879, "timestamp": "2025-12-09T11:33:54.456997+00:00", "meta": {"OBJECT_NAME": "CARTOSAT-2A", "OBJECT_ID": "2008-021A", "EPOCH": "2025-12-09T03:39:35.161056", "MEAN_MOTION": 14.78925109, "ECCENTRICITY": 0.0012193, "INCLINATION": 97.7931, "RA_OF_ASC_NODE": 33.0879, "ARG_OF_PERICENTER": 15.762, "MEAN_ANOMALY": 344.3969, "EPHEMERIS_TYPE": 0, "CLASSIFICATION_TYPE": "U", "NORAD_CAT_ID": 32783, "ELEMENT_SET_NO": 999, "REV_AT_EPOCH": 95071, "BSTAR": 0.00011527, "MEAN_MOTION_DOT": 8e-06, "MEAN_MOTION_DDOT": 0}, "tle": {"line1": "1 32783U 08021A   25343.15249029  .00000800  00000+0  11527-3 0  9999", "line2": "2 32783  97.7931  33.0879 0012193  15.7620 344.3969 14.78925109950714"}}, "geometry": {"type": "Point", "coordinates": [41.802868338535546, -46.83377994886249]}}, {"type": "Feature", "properties": {"norad_id": 33320, "name": "HUANJING 1A (HJ-1A)", "group": "resource", "lat": 52.94966422927747, "lon": 162.17708756708228, "alt_km": 611.6801736252473, "timestamp": "2025-12-09T11:33:54.457007+00:00", "meta": {"OBJECT_NAME": "HUANJING 1A (HJ-1A)", "OBJECT_ID": "2008-041A", "EPOCH": "2025-12-09T04:31:25.695840", "MEAN_MOTION": 14.83376348, "ECCENTRICITY": 0.0020365, "INCLINATION": 97.654, "RA_OF_ASC_NODE": 331.6349, "ARG_OF_PERICENTER": 45.4668, "MEAN_ANOMALY": 314.8206, "EPHEMERIS_TYPE": 0, "CLASSIFICATION_TYPE": "U", "NORAD_CAT_ID": 33320, "ELEMENT_SET_NO": 999, "REV_AT_EPOCH": 93023, "BSTAR": 0.00030716, "MEAN_MOTION_DOT": 2.477e-05, "MEAN_MOTION_DDOT": 0}, "tle": {"line1": "1 33320U 08041A   25343.18849185  .00002477  00000+0  30716-3 0  9994", "line2": "2 33320  97.6540 331.6349 0020365  45.4668 314.8206 14.83376348930230"}}, "geometry": {"type": "Point", "coordinates": [162.17708756708228, 52.94966422927747]}}, {"type": "Feature", "properties": {"norad_id": 33321, "name": "HUANJING 1B (HJ-1B)", "group": "resource", "lat": -6.6255182331223, "lon": -23.484937868854, "alt_km": 625.384481548932, "timestamp": "2025-12-09T11:33:54.457018+00:00", "meta": {"OBJECT_NAME": "HUANJING 1B (HJ-1B)", "OBJECT_ID": "2008-041B", "EPOCH": "2025-12-09T05:07:01.255872", "MEAN_MOTION": 14.82807974, "ECCENTRICITY": 0.0038258, "INCLINATION": 97.6396, "RA_OF_ASC_NODE": 335.365, "ARG_OF_PERICENTER": 86.8036, "MEAN_ANOMALY": 273.7555, "EPHEMERIS_TYPE": 0, "CLASSIFICATION_TYPE": "U", "NORAD_CAT_ID": 33321, "ELEMENT_SET_NO": 999, "REV_AT_EPOCH": 93025, "BSTAR": 0.00029206, "MEAN_MOTION_DOT": 2.341e-05, "MEAN_MOTION_DDOT": 0}, "tle": {"line1": "1 33321U 08041B   25343.21320898  .00002341  00000+0  29206-3 0  9996", "line2": "2 33321  97.6396 335.3650 0038258  86.8036 273.7555 14.82807974930259"}}, "geometry": {"type": "Point", "coordinates": [-23.484937868854, -6.6255182331223]}}, {"type": "Feature", "properties": {"norad_id": 33331, "name": "GEOEYE 1", "group": "resource", "lat": -10.78965396605288, "lon": -126.75696451686596, "alt_km": 682.3523050359281, "timestamp": "2025-12-09T11:33:54.457029+00:00", "meta": {"OBJECT_NAME": "GEOEYE 1", "OBJECT_ID": "2008-042A", "EPOCH": "2025-12-09T04:08:20.057568", "MEAN_MOTION": 14.64804488, "ECCENTRICITY": 0.0002783, "INCLINATION": 98.1256, "RA_OF_ASC_NODE": 54.4977, "ARG_OF_PERICENTER": 292.4999, "MEAN_ANOMALY": 67.5909, "EPHEMERIS_TYPE": 0, "CLASSIFICATION_TYPE": "U", "NORAD_CAT_ID": 33331, "ELEMENT_SET_NO": 999, "REV_AT_EPOCH": 92233, "BSTAR": 0.00018692, "MEAN_MOTION_DOT": 9.5e-06, "MEAN_MOTION_DDOT": 0}, "tle": {"line1": "1 33331U 08042A   25343.17245437  .00000950  00000+0  18692-3 0  9999", "line2": "2 33331  98.1256  54.4977 0002783 292.4999  67.5909 14.64804488922338"}}, "geometry": {"type": "Point", "coordinates": [-126.75696451686596, -10.78965396605288]}}, {"type": "Feature", "properties": {"norad_id": 33396, "name": "THEOS", "group": "resource", "lat": -30.902772732781095, "lon": -143.52157620141605, "alt_km": 831.3391943402366, "timestamp": "2025-12-09T11:33:54.457040+00:00", "meta": {"OBJECT_NAME": "THEOS", "OBJECT_ID": "2008-049A", "EPOCH": "2025-12-09T05:30:03.090816", "MEAN_MOTION": 14.20095168, "ECCENTRICITY": 0.000111, "INCLINATION": 98.5868, "RA_OF_ASC_NODE": 41.4221, "ARG_OF_PERICENTER": 95.8109, "MEAN_ANOMALY": 264.3194, "EPHEMERIS_TYPE": 0, "CLASSIFICATION_TYPE": "U", "NORAD_CAT_ID": 33396, "ELEMENT_SET_NO": 999, "REV_AT_EPOCH": 89100, "BSTAR": 8.0933e-05, "MEAN_MOTION_DOT": 1.3e-06, "MEAN_MOTION_DDOT": 0}, "tle": {"line1": "1 33396U 08049A   25343.22920244  .00000130  00000+0  80933-4 0  9997", "line2": "2 33396  98.5868  41.4221 0001110  95.8109 264.3194 14.20095168891002"}}, "geometry": {"type": "Point", "coordinates": [-143.52157620141605, -30.902772732781095]}}, {"type": "Feature", "properties": {"norad_id": 33412, "name": "COSMO-SKYMED 3", "group": "resource", "lat": 20.084574890020708, "lon": -169.07128025218128, "alt_km": 561.2648870362582, "timestamp": "2025-12-09T11:33:54.457051+00:00", "meta": {"OBJECT_NAME": "COSMO-SKYMED 3", "OBJECT_ID": "2008-054A", "EPOCH": "2025-12-09T03:29:53.468736", "MEAN_MOTION": 15.052975, "ECCENTRICITY": 0.0015807, "INCLINATION": 97.8453, "RA_OF_ASC_NODE": 193.477, "ARG_OF_PERICENTER": 186.3283, "MEAN_ANOMALY": 173.7746, "EPHEMERIS_TYPE": 0, "CLASSIFICATION_TYPE": "U", "NORAD_CAT_ID": 33412, "ELEMENT_SET_NO": 999, "REV_AT_EPOCH": 92833, "BSTAR": 0.00041584, "MEAN_MOTION_DOT": 5.9e-05, "MEAN_MOTION_DDOT": 0}, "tle": {"line1": "1 33412U 08054A   25343.14575774  .00005900  00000+0  41584-3 0  9995", "line2": "2 33412  97.8453 193.4770 0015807 186.3283 173.7746 15.05297500928338"}}, "geometry": {"type": "Point", "coordinates": [-169.07128025218128, 20.084574890020708]}}, {"type": "Feature", "properties": {"norad_id": 33446, "name": "YAOGAN-4", "group": "resource", "lat": -81.50423654130026, "lon": 24.914464886528858, "alt_km": 624.5320168231447, "timestamp": "2025-12-09T11:33:54.457061+00:00", "meta": {"OBJECT_NAME": "YAOGAN-4", "OBJECT_ID": "2008-061A", "EPOCH": "2025-12-08T19:47:11.729184", "MEAN_MOTION": 14.82664885, "ECCENTRICITY": 0.00139192, "INCLINATION": 97.9177, "RA_OF_ASC_NODE": 272.962, "ARG_OF_PERICENTER": 336.595, "MEAN_ANOMALY": 23.4628, "EPHEMERIS_TYPE": 0, "CLASSIFICATION_TYPE": "U", "NORAD_CAT_ID": 33446, "ELEMENT_SET_NO": 999, "REV_AT_EPOCH": 91745, "BSTAR": 0.00038742009, "MEAN_MOTION_DOT": 3.075e-05, "MEAN_MOTION_DDOT": 0}, "tle": {"line1": "1 33446U 08061A   25342.82444131  .00003075  00000+0  38742-3 0  9999", "line2": "2 33446  97.9177 272.9620 0013919 336.5950  23.4628 14.82664885917457"}}, "geometry": {"type": "Point", "coordinates": [24.914464886528858, -81.50423654130026]}}]}